{
  "type": "FeatureCollection",
  "features": [
    {
      "type": "Feature",
      "properties": {
        "norad_id": 41866,
        "name": "GOES 16",
        "group": "weather",
        "lat": -0.04762238599782624,
        "lon": 50.93733364537873,
        "alt_km": 35797.18369118979,
        "timestamp": "2025-12-27T03:58:43.824450+00:00",
        "meta_object_name": "GOES 16",
        "meta_object_id": "2016-071A",
        "meta_epoch": "2025-12-26T15:57:36.330048",
        "meta_mean_motion": 1.00271631,
        "meta_eccentricity": 0.0003274,
        "meta_inclination": 0.0797,
        "meta_ra_of_asc_node": 100.8609,
        "meta_arg_of_pericenter": 167.1325,
        "meta_mean_anomaly": 322.1538,
        "meta_ephemeris_type": 0,
        "meta_classification_type": "U",
        "meta_norad_cat_id": 41866,
        "meta_element_set_no": 999,
        "meta_rev_at_epoch": 3337,
        "meta_bstar": 0,
        "meta_mean_motion_dot": -6.9e-07,
        "meta_mean_motion_ddot": 0,
        "tle_line1": "1 41866U 16071A   25360.66500382 -.00000069  00000+0  00000+0 0  9990",
        "tle_line2": "2 41866   0.0797 100.8609 0003274 167.1325 322.1538  1.00271631 33376"
      },
      "geometry": {
        "type": "Point",
        "coordinates": [
          50.93733364537873,
          -0.04762238599782624
        ]
      }
    },
    {
      "type": "Feature",
      "properties": {
        "norad_id": 41882,
        "name": "FENGYUN 4A",
        "group": "weather",
        "lat": -0.5664599002961045,
        "lon": -80.84578534821695,
        "alt_km": 35777.545105731784,
        "timestamp": "2025-12-27T03:58:43.824460+00:00",
        "meta_object_name": "FENGYUN 4A",
        "meta_object_id": "2016-077A",
        "meta_epoch": "2025-12-26T09:22:21.494784",
        "meta_mean_motion": 1.00262391,
        "meta_eccentricity": 0.0004534,
        "meta_inclination": 1.8816,
        "meta_ra_of_asc_node": 82.2577,
        "meta_arg_of_pericenter": 143.1389,
        "meta_mean_anomaly": 133.8992,
        "meta_ephemeris_type": 0,
        "meta_classification_type": "U",
        "meta_norad_cat_id": 41882,
        "meta_element_set_no": 999,
        "meta_rev_at_epoch": 3319,
        "meta_bstar": 0,
        "meta_mean_motion_dot": -3.36e-06,
        "meta_mean_motion_ddot": 0,
        "tle_line1": "1 41882U 16077A   25360.39052656 -.00000336  00000+0  00000+0 0  9997",
        "tle_line2": "2 41882   1.8816  82.2577 0004534 143.1389 133.8992  1.00262391 33190"
      },
      "geometry": {
        "type": "Point",
        "coordinates": [
          -80.84578534821695,
          -0.5664599002961045
        ]
      }
    },
    {
      "type": "Feature",
      "properties": {
        "norad_id": 41884,
        "name": "CYGFM05",
        "group": "weather",
        "lat": -31.581130586491398,
        "lon": -165.51141908021688,
        "alt_km": 420.58041243801017,
        "timestamp": "2025-12-27T03:58:43.824471+00:00",
        "meta_object_name": "CYGFM05",
        "meta_object_id": "2016-078A",
        "meta_epoch": "2025-12-26T06:48:05.113728",
        "meta_mean_motion": 15.48149992,
        "meta_eccentricity": 0.0010446,
        "meta_inclination": 34.9603,
        "meta_ra_of_asc_node": 318.6293,
        "meta_arg_of_pericenter": 299.4852,
        "meta_mean_anomaly": 60.4828,
        "meta_ephemeris_type": 0,
        "meta_classification_type": "U",
        "meta_norad_cat_id": 41884,
        "meta_element_set_no": 999,
        "meta_rev_at_epoch": 50186,
        "meta_bstar": 0.00037992,
        "meta_mean_motion_dot": 0.00020625,
        "meta_mean_motion_ddot": 0,
        "tle_line1": "1 41884U 16078A   25360.28339252  .00020625  00000+0  37992-3 0  9994",
        "tle_line2": "2 41884  34.9603 318.6293 0010446 299.4852  60.4828 15.48149992501868"
      },
      "geometry": {
        "type": "Point",
        "coordinates": [
          -165.51141908021688,
          -31.581130586491398
        ]
      }
    },
    {
      "type": "Feature",
      "properties": {
        "norad_id": 41885,
        "name": "CYGFM04",
        "group": "weather",
        "lat": -34.91398780462074,
        "lon": -163.3836529162149,
        "alt_km": 413.1855084478566,
        "timestamp": "2025-12-27T03:58:43.824480+00:00",
        "meta_object_name": "CYGFM04",
        "meta_object_id": "2016-078B",
        "meta_epoch": "2025-12-26T05:11:40.919712",
        "meta_mean_motion": 15.50945052,
        "meta_eccentricity": 0.0008969,
        "meta_inclination": 34.9347,
        "meta_ra_of_asc_node": 293.4499,
        "meta_arg_of_pericenter": 323.6494,
        "meta_mean_anomaly": 36.3618,
        "meta_ephemeris_type": 0,
        "meta_classification_type": "U",
        "meta_norad_cat_id": 41885,
        "meta_element_set_no": 999,
        "meta_rev_at_epoch": 50203,
        "meta_bstar": 0.00038817,
        "meta_mean_motion_dot": 0.00023266,
        "meta_mean_motion_ddot": 0,
        "tle_line1": "1 41885U 16078B   25360.21644583  .00023266  00000+0  38817-3 0  9995",
        "tle_line2": "2 41885  34.9347 293.4499 0008969 323.6494  36.3618 15.50945052502034"
      },
      "geometry": {
        "type": "Point",
        "coordinates": [
          -163.3836529162149,
          -34.91398780462074
        ]
      }
    },
    {
      "type": "Feature",
      "properties": {
        "norad_id": 41886,
        "name": "CYGFM02",
        "group": "weather",
        "lat": -2.5024196964748135,
        "lon": -78.23663269971364,
        "alt_km": 402.1972609123668,
        "timestamp": "2025-12-27T03:58:43.824490+00:00",
        "meta_object_name": "CYGFM02",
        "meta_object_id": "2016-078C",
        "meta_epoch": "2025-12-26T04:50:47.956416",
        "meta_mean_motion": 15.52365862,
        "meta_eccentricity": 0.0010591,
        "meta_inclination": 34.9437,
        "meta_ra_of_asc_node": 291.6942,
        "meta_arg_of_pericenter": 325.3429,
        "meta_mean_anomaly": 34.6603,
        "meta_ephemeris_type": 0,
        "meta_classification_type": "U",
        "meta_norad_cat_id": 41886,
        "meta_element_set_no": 999,
        "meta_rev_at_epoch": 50216,
        "meta_bstar": 0.00040372,
        "meta_mean_motion_dot": 0.00025494,
        "meta_mean_motion_ddot": 0,
        "tle_line1": "1 41886U 16078C   25360.20194394  .00025494  00000+0  40372-3 0  9999",
        "tle_line2": "2 41886  34.9437 291.6942 0010591 325.3429  34.6603 15.52365862502165"
      },
      "geometry": {
        "type": "Point",
        "coordinates": [
          -78.23663269971364,
          -2.5024196964748135
        ]
      }
    },
    {
      "type": "Feature",
      "properties": {
        "norad_id": 41887,
        "name": "CYGFM01",
        "group": "weather",
        "lat": -21.073056920362053,
        "lon": -78.38712144573249,
        "alt_km": 414.9901278037278,
        "timestamp": "2025-12-27T03:58:43.824499+00:00",
        "meta_object_name": "CYGFM01",
        "meta_object_id": "2016-078D",
        "meta_epoch": "2025-12-26T14:13:22.088064",
        "meta_mean_motion": 15.48759806,
        "meta_eccentricity": 0.0010201,
        "meta_inclination": 34.9435,
        "meta_ra_of_asc_node": 318.8584,
        "meta_arg_of_pericenter": 294.2358,
        "meta_mean_anomaly": 65.7298,
        "meta_ephemeris_type": 0,
        "meta_classification_type": "U",
        "meta_norad_cat_id": 41887,
        "meta_element_set_no": 999,
        "meta_rev_at_epoch": 50185,
        "meta_bstar": 0.00041171,
        "meta_mean_motion_dot": 0.00022845,
        "meta_mean_motion_ddot": 0,
        "tle_line1": "1 41887U 16078D   25360.59261676  .00022845  00000+0  41171-3 0  9995",
        "tle_line2": "2 41887  34.9435 318.8584 0010201 294.2358  65.7298 15.48759806501851"
      },
      "geometry": {
        "type": "Point",
        "coordinates": [
          -78.38712144573249,
          -21.073056920362053
        ]
      }
    },
    {
      "type": "Feature",
      "properties": {
        "norad_id": 41888,
        "name": "CYGFM08",
        "group": "weather",
        "lat": 33.28048865571437,
        "lon": 7.976324917872068,
        "alt_km": 413.0056718356891,
        "timestamp": "2025-12-27T03:58:43.824509+00:00",
        "meta_object_name": "CYGFM08",
        "meta_object_id": "2016-078E",
        "meta_epoch": "2025-12-26T04:28:38.500608",
        "meta_mean_motion": 15.4998199,
        "meta_eccentricity": 0.00113412,
        "meta_inclination": 34.946,
        "meta_ra_of_asc_node": 304.349,
        "meta_arg_of_pericenter": 314.88,
        "meta_mean_anomaly": 45.1001,
        "meta_ephemeris_type": 0,
        "meta_classification_type": "U",
        "meta_norad_cat_id": 41888,
        "meta_element_set_no": 999,
        "meta_rev_at_epoch": 50202,
        "meta_bstar": 0.00037787487,
        "meta_mean_motion_dot": 0.00021899,
        "meta_mean_motion_ddot": 0,
        "tle_line1": "1 41888U 16078E   25360.18655672  .00021899  00000+0  37787-3 0  9990",
        "tle_line2": "2 41888  34.9460 304.3490 0011341 314.8800  45.1001 15.49981990502029"
      },
      "geometry": {
        "type": "Point",
        "coordinates": [
          7.976324917872068,
          33.28048865571437
        ]
      }
    }
  ]
}